{
  "type": "FeatureCollection",
  "features": [
    {
      "type": "Feature",
      "properties": {
        "norad_id": 37836,
        "name": "EUTELSAT 16A",
        "group": "eutelsat",
        "lat": 0.06975854577258556,
        "lon": 66.55818999280856,
        "alt_km": 35809.37589063869,
        "timestamp": "2025-12-16T21:38:56.841623+00:00",
        "meta_object_name": "EUTELSAT 16A",
        "meta_object_id": "2011-057A",
        "meta_epoch": "2025-12-15T23:44:14.255232",
        "meta_mean_motion": 1.00273616,
        "meta_eccentricity": 0.00061171,
        "meta_inclination": 0.0623,
        "meta_ra_of_asc_node": 17.9416,
        "meta_arg_of_pericenter": 251.3448,
        "meta_mean_anomaly": 187.6725,
        "meta_ephemeris_type": 0,
        "meta_classification_type": "U",
        "meta_norad_cat_id": 37836,
        "meta_element_set_no": 999,
        "meta_rev_at_epoch": 549,
        "meta_bstar": 0,
        "meta_mean_motion_dot": 1.27e-06,
        "meta_mean_motion_ddot": 0,
        "tle_line1": "1 37836U 11057A   25349.98905388  .00000127  00000+0  00000+0 0  9992",
        "tle_line2": "2 37836   0.0623  17.9416 0006117 251.3448 187.6725  1.00273616  5490"
      },
      "geometry": {
        "type": "Point",
        "coordinates": [
          66.55818999280856,
          0.06975854577258556
        ]
      }
    },
    {
      "type": "Feature",
      "properties": {
        "norad_id": 38992,
        "name": "EUTELSAT 21B",
        "group": "eutelsat",
        "lat": 0.08271859057351735,
        "lon": 72.14716992537986,
        "alt_km": 35798.8238326143,
        "timestamp": "2025-12-16T21:38:56.841634+00:00",
        "meta_object_name": "EUTELSAT 21B",
        "meta_object_id": "2012-062B",
        "meta_epoch": "2025-12-15T23:45:44.111232",
        "meta_mean_motion": 1.00273936,
        "meta_eccentricity": 0.00034547,
        "meta_inclination": 0.0689,
        "meta_ra_of_asc_node": 13.2528,
        "meta_arg_of_pericenter": 261.9959,
        "meta_mean_anomaly": 187.6851,
        "meta_ephemeris_type": 0,
        "meta_classification_type": "U",
        "meta_norad_cat_id": 38992,
        "meta_element_set_no": 999,
        "meta_rev_at_epoch": 4799,
        "meta_bstar": 0,
        "meta_mean_motion_dot": 1.53e-06,
        "meta_mean_motion_ddot": 0,
        "tle_line1": "1 38992U 12062B   25349.99009388  .00000153  00000+0  00000+0 0  9998",
        "tle_line2": "2 38992   0.0689  13.2528 0003454 261.9959 187.6851  1.00273936 47990"
      },
      "geometry": {
        "type": "Point",
        "coordinates": [
          72.14716992537986,
          0.08271859057351735
        ]
      }
    },
    {
      "type": "Feature",
      "properties": {
        "norad_id": 39020,
        "name": "EUTELSAT 70B",
        "group": "eutelsat",
        "lat": 0.06509644830554448,
        "lon": 120.97060946877482,
        "alt_km": 35797.78267200599,
        "timestamp": "2025-12-16T21:38:56.841646+00:00",
        "meta_object_name": "EUTELSAT 70B",
        "meta_object_id": "2012-069A",
        "meta_epoch": "2025-12-16T05:07:40.145376",
        "meta_mean_motion": 1.00271067,
        "meta_eccentricity": 0.00043142,
        "meta_inclination": 0.0609,
        "meta_ra_of_asc_node": 354.2385,
        "meta_arg_of_pericenter": 255.7231,
        "meta_mean_anomaly": 342.5632,
        "meta_ephemeris_type": 0,
        "meta_classification_type": "U",
        "meta_norad_cat_id": 39020,
        "meta_element_set_no": 999,
        "meta_rev_at_epoch": 4767,
        "meta_bstar": 0,
        "meta_mean_motion_dot": -2e-07,
        "meta_mean_motion_ddot": 0,
        "tle_line1": "1 39020U 12069A   25350.21365909 -.00000020  00000+0  00000+0 0  9993",
        "tle_line2": "2 39020   0.0609 354.2385 0004314 255.7231 342.5632  1.00271067 47671"
      },
      "geometry": {
        "type": "Point",
        "coordinates": [
          120.97060946877482,
          0.06509644830554448
        ]
      }
    },
    {
      "type": "Feature",
      "properties": {
        "norad_id": 39122,
        "name": "EUTELSAT 117 WEST A",
        "group": "eutelsat",
        "lat": -0.037021071447332195,
        "lon": -66.27695756225938,
        "alt_km": 35775.20590556997,
        "timestamp": "2025-12-16T21:38:56.841659+00:00",
        "meta_object_name": "EUTELSAT 117 WEST A",
        "meta_object_id": "2013-012A",
        "meta_epoch": "2025-12-16T08:44:16.702080",
        "meta_mean_motion": 1.00272564,
        "meta_eccentricity": 0.00027564,
        "meta_inclination": 0.0232,
        "meta_ra_of_asc_node": 37.0984,
        "meta_arg_of_pericenter": 232.4259,
        "meta_mean_anomaly": 189.9985,
        "meta_ephemeris_type": 0,
        "meta_classification_type": "U",
        "meta_norad_cat_id": 39122,
        "meta_element_set_no": 999,
        "meta_rev_at_epoch": 4660,
        "meta_bstar": 0,
        "meta_mean_motion_dot": 1e-07,
        "meta_mean_motion_ddot": 0,
        "tle_line1": "1 39122U 13012A   25350.36408220  .00000010  00000+0  00000+0 0  9993",
        "tle_line2": "2 39122   0.0232  37.0984 0002756 232.4259 189.9985  1.00272564 46606"
      },
      "geometry": {
        "type": "Point",
        "coordinates": [
          -66.27695756225938,
          -0.037021071447332195
        ]
      }
    },
    {
      "type": "Feature",
      "properties": {
        "norad_id": 39163,
        "name": "EUTELSAT 7B",
        "group": "eutelsat",
        "lat": 0.08472910890648173,
        "lon": 57.59207619812855,
        "alt_km": 35788.08799128519,
        "timestamp": "2025-12-16T21:38:56.841671+00:00",
        "meta_object_name": "EUTELSAT 7B",
        "meta_object_id": "2013-022A",
        "meta_epoch": "2025-12-16T06:32:32.017056",
        "meta_mean_motion": 1.00274576,
        "meta_eccentricity": 0.00045162,
        "meta_inclination": 0.0659,
        "meta_ra_of_asc_node": 350.5927,
        "meta_arg_of_pericenter": 328.5889,
        "meta_mean_anomaly": 231.1412,
        "meta_ephemeris_type": 0,
        "meta_classification_type": "U",
        "meta_norad_cat_id": 39163,
        "meta_element_set_no": 999,
        "meta_rev_at_epoch": 4611,
        "meta_bstar": 0,
        "meta_mean_motion_dot": 7.2e-07,
        "meta_mean_motion_ddot": 0,
        "tle_line1": "1 39163U 13022A   25350.27259279  .00000072  00000+0  00000+0 0  9995",
        "tle_line2": "2 39163   0.0659 350.5927 0004516 328.5889 231.1412  1.00274576 46112"
      },
      "geometry": {
        "type": "Point",
        "coordinates": [
          57.59207619812855,
          0.08472910890648173
        ]
      }
    },
    {
      "type": "Feature",
      "properties": {
        "norad_id": 39612,
        "name": "EXPRESS-AT1",
        "group": "eutelsat",
        "lat": 0.017264293620474526,
        "lon": 106.51399559620037,
        "alt_km": 35784.230233349605,
        "timestamp": "2025-12-16T21:38:56.841694+00:00",
        "meta_object_name": "EXPRESS-AT1",
        "meta_object_id": "2014-010A",
        "meta_epoch": "2025-12-16T03:21:00.994176",
        "meta_mean_motion": 1.00270589,
        "meta_eccentricity": 5.447e-05,
        "meta_inclination": 0.0153,
        "meta_ra_of_asc_node": 301.1938,
        "meta_arg_of_pericenter": 188.1524,
        "meta_mean_anomaly": 61.9508,
        "meta_ephemeris_type": 0,
        "meta_classification_type": "U",
        "meta_norad_cat_id": 39612,
        "meta_element_set_no": 999,
        "meta_rev_at_epoch": 4298,
        "meta_bstar": 0,
        "meta_mean_motion_dot": 1.02e-06,
        "meta_mean_motion_ddot": 0,
        "tle_line1": "1 39612U 14010A   25350.13959484  .00000102  00000+0  00000+0 0  9996",
        "tle_line2": "2 39612   0.0153 301.1938 0000544 188.1524  61.9508  1.00270589 42983"
      },
      "geometry": {
        "type": "Point",
        "coordinates": [
          106.51399559620037,
          0.017264293620474526
        ]
      }
    },
    {
      "type": "Feature",
      "properties": {
        "norad_id": 39613,
        "name": "EXPRESS-AT2",
        "group": "eutelsat",
        "lat": -0.028830172184416598,
        "lon": -169.64412792036146,
        "alt_km": 35787.72455762028,
        "timestamp": "2025-12-16T21:38:56.841720+00:00",
        "meta_object_name": "EXPRESS-AT2",
        "meta_object_id": "2014-010B",
        "meta_epoch": "2025-12-16T16:44:38.561856",
        "meta_mean_motion": 1.00273031,
        "meta_eccentricity": 0.0001187,
        "meta_inclination": 0.0166,
        "meta_ra_of_asc_node": 310.1218,
        "meta_arg_of_pericenter": 353.6049,
        "meta_mean_anomaly": 172.8753,
        "meta_ephemeris_type": 0,
        "meta_classification_type": "U",
        "meta_norad_cat_id": 39613,
        "meta_element_set_no": 999,
        "meta_rev_at_epoch": 4267,
        "meta_bstar": 0,
        "meta_mean_motion_dot": -2.57e-06,
        "meta_mean_motion_ddot": 0,
        "tle_line1": "1 39613U 14010B   25350.69766854 -.00000257  00000+0  00000+0 0  9997",
        "tle_line2": "2 39613   0.0166 310.1218 0001187 353.6049 172.8753  1.00273031 42679"
      },
      "geometry": {
        "type": "Point",
        "coordinates": [
          -169.64412792036146,
          -0.028830172184416598
        ]
      }
    }
  ]
}